{
  "norad_id": 39159,
  "name": "PROBA-V",
  "history": [
    {
      "epoch": "2026-03-28T22:10:13.375488Z",
      "apogee_km": 816.5413076296354,
      "perigee_km": 810.008341471741,
      "latitude_deg": -7.237790782802947e-05,
      "longitude_deg": -88.37476180288651,
      "height_km": 813.2074953700092,
      "semi_major_axis_km": 7191.411824550688,
      "eccentricity": 0.00045422,
      "inclination_deg": 98.3533,
      "raan_deg": 70.5182,
      "arg_perigee_deg": 23.5523,
      "mean_anomaly_deg": 336.5863,
      "mean_motion_rev_day": 14.23578834
    },
    {
      "epoch": "2026-03-29T04:55:04.081440Z",
      "apogee_km": 816.5321196848781,
      "perigee_km": 810.0167009471315,
      "latitude_deg": -1.2415581001162136e-05,
      "longitude_deg": 170.4038480898421,
      "height_km": 813.1963456506725,
      "semi_major_axis_km": 7191.411410316005,
      "eccentricity": 0.000453,
      "inclination_deg": 98.3534,
      "raan_deg": 70.7852,
      "arg_perigee_deg": 22.707,
      "mean_anomaly_deg": 337.4309,
      "mean_motion_rev_day": 14.23578957
    },
    {
      "epoch": "2026-03-30T04:32:01.535424Z",
      "apogee_km": 816.493146040897,
      "perigee_km": 810.0539570330493,
      "latitude_deg": -3.1124911546926864e-05,
      "longitude_deg": 176.12918685359153,
      "height_km": 813.1781435448028,
      "semi_major_axis_km": 7191.410551536973,
      "eccentricity": 0.0004477,
      "inclination_deg": 98.3535,
      "raan_deg": 71.7198,
      "arg_perigee_deg": 20.131,
      "mean_anomaly_deg": 340.0045,
      "mean_motion_rev_day": 14.23579212
    },
    {
      "epoch": "2026-03-30T12:58:04.906848Z",
      "apogee_km": 816.4793185362141,
      "perigee_km": 810.0668819780167,
      "latitude_deg": -8.283530347011345e-06,
      "longitude_deg": 49.60255316940552,
      "height_km": 813.1735367276948,
      "semi_major_axis_km": 7191.410100257115,
      "eccentricity": 0.00044584,
      "inclination_deg": 98.3535,
      "raan_deg": 72.0536,
      "arg_perigee_deg": 19.238,
      "mean_anomaly_deg": 340.8967,
      "mean_motion_rev_day": 14.23579346
    },
    {
      "epoch": "2026-03-30T21:24:08.276544Z",
      "apogee_km": 816.4625616110634,
      "perigee_km": 810.0829182025973,
      "latitude_deg": 3.551838952956965e-05,
      "longitude_deg": -76.92407635655421,
      "height_km": 813.172590465005,
      "semi_major_axis_km": 7191.4097399068305,
      "eccentricity": 0.00044356,
      "inclination_deg": 98.3535,
      "raan_deg": 72.3874,
      "arg_perigee_deg": 18.3353,
      "mean_anomaly_deg": 341.7986,
      "mean_motion_rev_day": 14.23579453
    },
    {
      "epoch": "2026-03-31T21:01:05.700288Z",
      "apogee_km": 816.4214891103611,
      "perigee_km": 810.1218151311041,
      "latitude_deg": 1.2832013239232375e-05,
      "longitude_deg": -71.19850993476017,
      "height_km": 813.1679303476186,
      "semi_major_axis_km": 7191.408652120733,
      "eccentricity": 0.000438,
      "inclination_deg": 98.3537,
      "raan_deg": 73.3221,
      "arg_perigee_deg": 15.7354,
      "mean_anomaly_deg": 344.3961,
      "mean_motion_rev_day": 14.23579776
    },
    {
      "epoch": "2026-04-01T10:30:47.081088Z",
      "apogee_km": 816.3976900773696,
      "perigee_km": 810.145479453774,
      "latitude_deg": -9.144117206901247e-06,
      "longitude_deg": 86.35896109680587,
      "height_km": 813.1679186478457,
      "semi_major_axis_km": 7191.4085847655715,
      "eccentricity": 0.0004347,
      "inclination_deg": 98.3537,
      "raan_deg": 73.8562,
      "arg_perigee_deg": 14.0976,
      "mean_anomaly_deg": 346.0324,
      "mean_motion_rev_day": 14.23579796
    },
    {
      "epoch": "2026-04-02T16:52:35.146848Z",
      "apogee_km": 816.3407664014621,
      "perigee_km": 810.1993047930619,
      "latitude_deg": 3.9226190341274535e-05,
      "longitude_deg": -9.136597325336238,
      "height_km": 813.1802208882759,
      "semi_major_axis_km": 7191.407035597262,
      "eccentricity": 0.000427,
      "inclination_deg": 98.3539,
      "raan_deg": 75.0579,
      "arg_perigee_deg": 10.5791,
      "mean_anomaly_deg": 349.5478,
      "mean_motion_rev_day": 14.23580256
    },
    {
      "epoch": "2026-04-02T21:56:13.144992Z",
      "apogee_km": 816.3313787593743,
      "perigee_km": 810.2067458723432,
      "latitude_deg": -1.0090762540365788e-05,
      "longitude_deg": -85.05244518514522,
      "height_km": 813.1816234681935,
      "semi_major_axis_km": 7191.406062315858,
      "eccentricity": 0.00042583,
      "inclination_deg": 98.3539,
      "raan_deg": 75.2582,
      "arg_perigee_deg": 9.9513,
      "mean_anomaly_deg": 350.175,
      "mean_motion_rev_day": 14.23580545
    },
    {
      "epoch": "2026-04-03T21:33:10.503936Z",
      "apogee_km": 816.287306240125,
      "perigee_km": 810.2482521627435,
      "latitude_deg": 1.0305552767729566e-05,
      "longitude_deg": -79.32651567891986,
      "height_km": 813.2018238282924,
      "semi_major_axis_km": 7191.404779201434,
      "eccentricity": 0.00041988,
      "inclination_deg": 98.3541,
      "raan_deg": 76.193,
      "arg_perigee_deg": 7.2967,
      "mean_anomaly_deg": 352.8273,
      "mean_motion_rev_day": 14.23580926
    },
    {
      "epoch": "2026-04-05T12:21:01.849536Z",
      "apogee_km": 816.2172727700963,
      "perigee_km": 810.3157194050664,
      "latitude_deg": -2.5192281960794487e-05,
      "longitude_deg": 58.65178697640948,
      "height_km": 813.2487265030537,
      "semi_major_axis_km": 7191.403496087581,
      "eccentricity": 0.00041032,
      "inclination_deg": 98.3543,
      "raan_deg": 77.7286,
      "arg_perigee_deg": 2.7358,
      "mean_anomaly_deg": 357.3843,
      "mean_motion_rev_day": 14.23581307
    },
    {
      "epoch": "2026-04-05T20:47:05.175168Z",
      "apogee_km": 816.1989044871343,
      "perigee_km": 810.3335959962369,
      "latitude_deg": 2.7181190183650403e-05,
      "longitude_deg": -67.87456073515638,
      "height_km": 813.2646477096482,
      "semi_major_axis_km": 7191.403250241685,
      "eccentricity": 0.0004078,
      "inclination_deg": 98.3543,
      "raan_deg": 78.0625,
      "arg_perigee_deg": 1.7058,
      "mean_anomaly_deg": 358.4135,
      "mean_motion_rev_day": 14.2358138
    },
    {
      "epoch": "2026-04-05T22:28:17.838912Z",
      "apogee_km": 816.1967044299699,
      "perigee_km": 810.3355670462797,
      "latitude_deg": 2.2068760091781212e-05,
      "longitude_deg": -93.17980222483487,
      "height_km": 813.2663071123185,
      "semi_major_axis_km": 7191.403135738125,
      "eccentricity": 0.00040751,
      "inclination_deg": 98.3543,
      "raan_deg": 78.1293,
      "arg_perigee_deg": 1.4677,
      "mean_anomaly_deg": 358.6514,
      "mean_motion_rev_day": 14.23581414
    },
    {
      "epoch": "2026-04-07T11:34:56.453376Z",
      "apogee_km": 816.1160783743835,
      "perigee_km": 810.4132968361127,
      "latitude_deg": 7.0841818011302e-05,
      "longitude_deg": 70.10400966946041,
      "height_km": 813.3467249900815,
      "semi_major_axis_km": 7191.401687605248,
      "eccentricity": 0.0003965,
      "inclination_deg": 98.3544,
      "raan_deg": 79.5981,
      "arg_perigee_deg": 357.2805,
      "mean_anomaly_deg": 2.8353,
      "mean_motion_rev_day": 14.23581844
    },
    {
      "epoch": "2026-04-08T11:11:53.741472Z",
      "apogee_km": 816.0637500837529,
      "perigee_km": 810.4642376139018,
      "latitude_deg": -8.010265788493263e-06,
      "longitude_deg": 75.83034673108415,
      "height_km": 813.4070357362219,
      "semi_major_axis_km": 7191.400993848827,
      "eccentricity": 0.00038932,
      "inclination_deg": 98.3545,
      "raan_deg": 80.533,
      "arg_perigee_deg": 354.6256,
      "mean_anomaly_deg": 5.4881,
      "mean_motion_rev_day": 14.2358205
    },
    {
      "epoch": "2026-04-09T19:14:54.306816Z",
      "apogee_km": 816.0111120995425,
      "perigee_km": 810.5140062764985,
      "latitude_deg": -2.485881622650874e-05,
      "longitude_deg": -44.96946356623275,
      "height_km": 813.4840333903546,
      "semi_major_axis_km": 7191.39955918802,
      "eccentricity": 0.0003822,
      "inclination_deg": 98.3547,
      "raan_deg": 81.8018,
      "arg_perigee_deg": 350.3199,
      "mean_anomaly_deg": 9.7906,
      "mean_motion_rev_day": 14.23582476
    },
    {
      "epoch": "2026-04-10T12:07:00.907968Z",
      "apogee_km": 815.9845661018026,
      "perigee_km": 810.539238852848,
      "latitude_deg": 2.502435769998906e-05,
      "longitude_deg": 61.97795787466348,
      "height_km": 813.5297740289799,
      "semi_major_axis_km": 7191.3989024773255,
      "eccentricity": 0.0003786,
      "inclination_deg": 98.3547,
      "raan_deg": 82.4695,
      "arg_perigee_deg": 348.0057,
      "mean_anomaly_deg": 12.1032,
      "mean_motion_rev_day": 14.23582671
    },
    {
      "epoch": "2026-04-11T16:47:36.125952Z",
      "apogee_km": 815.9257026137593,
      "perigee_km": 810.5968764812033,
      "latitude_deg": 3.8579491901792564e-05,
      "longitude_deg": -8.211287906459152,
      "height_km": 813.626683874965,
      "semi_major_axis_km": 7191.398289547481,
      "eccentricity": 0.0003705,
      "inclination_deg": 98.3548,
      "raan_deg": 83.6047,
      "arg_perigee_deg": 344.379,
      "mean_anomaly_deg": 15.7275,
      "mean_motion_rev_day": 14.23582853
    },
    {
      "epoch": "2026-04-13T04:13:01.967808Z",
      "apogee_km": 815.8593017724061,
      "perigee_km": 810.661647333699,
      "latitude_deg": 3.2571157347732334e-05,
      "longitude_deg": -179.6214679209067,
      "height_km": 813.7539483152922,
      "semi_major_axis_km": 7191.397474553052,
      "eccentricity": 0.00036138,
      "inclination_deg": 98.355,
      "raan_deg": 85.007,
      "arg_perigee_deg": 339.7549,
      "mean_anomaly_deg": 20.3487,
      "mean_motion_rev_day": 14.23583095
    }
  ]
}